STARLINK-2558           
1 48282U 21036G   26068.24086135 -.00001547  00000+0 -40137-4 0  9994
2 48282  53.1601  77.4576 0001161 117.5485 242.5634 15.30182377268344
HYPERFIELD-1A           
1 60562U 24149CY  26068.76488211  .00008569  00000+0  30052-3 0  9998
2 60562  97.3842 149.5066 0003865 313.7844  46.3076 15.29681349 86836
